[
    {
        "Altitude(m)": 607910.9995699205,
        "Argument of Periapsis(deg)": 0.0,
        "Eccentricity": 0.0,
        "Inclination(deg)": 60.0,
        "Latitude(deg)": -14.292890845109843,
        "Longitude(deg)": 163.44262746122277,
        "Mean Anomaly(deg)": 196.36359999999996,
        "RAAN(deg)": 75.0,
        "Satellite Name": "Test1 342",
        "Satellite Number": 342,
        "Semi-Major Axis(m)": 6980739.136638005,
        "Time(s)": 0
    },
    {
        "Altitude(m)": 608060.2329156131,
        "Argument of Periapsis(deg)": 0.00010418945913296404,
        "Eccentricity": 0.0,
        "Inclination(deg)": 60.0,
        "Latitude(deg)": -14.826552651839148,
        "Longitude(deg)": 163.73123604838048,
        "Mean Anomaly(deg)": 196.98370614546184,
        "RAAN(deg)": 74.99957995086027,
        "Satellite Name": "Test1 342",
        "Satellite Number": 342,
        "Semi-Major Axis(m)": 6980739.136638005,
        "Time(s)": 10
    },
    {
        "Altitude(m)": 608211.8964766263,
        "Argument of Periapsis(deg)": 0.0002083789182659281,
        "Eccentricity": 0.0,
        "Inclination(deg)": 60.0,
        "Latitude(deg)": -15.35969824287616,
        "Longitude(deg)": 164.0214534176546,
        "Mean Anomaly(deg)": 197.60381229092366,
        "RAAN(deg)": 74.99915990172052,
        "Satellite Name": "Test1 342",
        "Satellite Number": 342,
        "Semi-Major Axis(m)": 6980739.136638005,
        "Time(s)": 20
    },
    {
        "Altitude(m)": 608365.9421716591,
        "Argument of Periapsis(deg)": 0.00031256837739889213,
        "Eccentricity": 0.0,
        "Inclination(deg)": 60.0,
        "Latitude(deg)": -15.892306409178534,
        "Longitude(deg)": 164.31334703636722,
        "Mean Anomaly(deg)": 198.22391843638547,
        "RAAN(deg)": 74.99873985258078,
        "Satellite Name": "Test1 342",
        "Satellite Number": 342,
        "Semi-Major Axis(m)": 6980739.136638005,
        "Time(s)": 30
    },
    {
        "Altitude(m)": 608522.3207218525,
        "Argument of Periapsis(deg)": 0.0004167578365318562,
        "Eccentricity": 0.0,
        "Inclination(deg)": 60.0,
        "Latitude(deg)": -16.4243556094474,
        "Longitude(deg)": 164.60698589084768,
        "Mean Anomaly(deg)": 198.8440245818473,
        "RAAN(deg)": 74.99831980344103,
        "Satellite Name": "Test1 342",
        "Satellite Number": 342,
        "Semi-Major Axis(m)": 6980739.136638005,
        "Time(s)": 40
    },
    {
        "Altitude(m)": 608680.9816721344,
        "Argument of Periapsis(deg)": 0.0005209472956648203,
        "Eccentricity": 0.0,
        "Inclination(deg)": 60.0,
        "Latitude(deg)": -16.95582395410505,
        "Longitude(deg)": 164.90243952176192,
        "Mean Anomaly(deg)": 199.46413072730914,
        "RAAN(deg)": 74.9978997543013,
        "Satellite Name": "Test1 342",
        "Satellite Number": 342,
        "Semi-Major Axis(m)": 6980739.136638005,
        "Time(s)": 50
    },
    {
        "Altitude(m)": 608841.8734130511,
        "Argument of Periapsis(deg)": 0.0006251367547977843,
        "Eccentricity": 0.0,
        "Inclination(deg)": 60.0,
        "Latitude(deg)": -17.486689188794653,
        "Longitude(deg)": 165.1997785731525,
        "Mean Anomaly(deg)": 200.084236872771,
        "RAAN(deg)": 74.99747970516155,
        "Satellite Name": "Test1 342",
        "Satellite Number": 342,
        "Semi-Major Axis(m)": 6980739.136638005,
        "Time(s)": 60
    },
    {
        "Altitude(m)": 609004.9432032092,
        "Argument of Periapsis(deg)": 0.0007293262139307483,
        "Eccentricity": 0.0,
        "Inclination(deg)": 60.0,
        "Latitude(deg)": -18.016928677376743,
        "Longitude(deg)": 165.4990753423416,
        "Mean Anomaly(deg)": 200.70434301823275,
        "RAAN(deg)": 74.9970596560218,
        "Satellite Name": "Test1 342",
        "Satellite Number": 342,
        "Semi-Major Axis(m)": 6980739.136638005,
        "Time(s)": 70
    },
    {
        "Altitude(m)": 609170.1371922229,
        "Argument of Periapsis(deg)": 0.0008335156730637124,
        "Eccentricity": 0.0,
        "Inclination(deg)": 60.0,
        "Latitude(deg)": -18.5465193843954,
        "Longitude(deg)": 165.8004028178469,
        "Mean Anomaly(deg)": 201.3244491636946,
        "RAAN(deg)": 74.99663960688207,
        "Satellite Name": "Test1 342",
        "Satellite Number": 342,
        "Semi-Major Axis(m)": 6980739.136638005,
        "Time(s)": 80
    },
    {
        "Altitude(m)": 609337.4004442124,
        "Argument of Periapsis(deg)": 0.0009377051321966765,
        "Eccentricity": 0.0,
        "Inclination(deg)": 60.0,
        "Latitude(deg)": -19.075437856995155,
        "Longitude(deg)": 166.10383523107743,
        "Mean Anomaly(deg)": 201.94455530915644,
        "RAAN(deg)": 74.99621955774232,
        "Satellite Name": "Test1 342",
        "Satellite Number": 342,
        "Semi-Major Axis(m)": 6980739.136638005,
        "Time(s)": 90
    },
    {
        "Altitude(m)": 609506.6769617985,
        "Argument of Periapsis(deg)": 0.0010418945913296407,
        "Eccentricity": 0.0,
        "Inclination(deg)": 60.0,
        "Latitude(deg)": -19.603660206261424,
        "Longitude(deg)": 166.4094486089593,
        "Mean Anomaly(deg)": 202.5646614546183,
        "RAAN(deg)": 74.99579950860257,
        "Satellite Name": "Test1 342",
        "Satellite Number": 342,
        "Semi-Major Axis(m)": 6980739.136638005,
        "Time(s)": 100
    },
    {
        "Altitude(m)": 609677.9097106209,
        "Argument of Periapsis(deg)": 0.0011460840504626045,
        "Eccentricity": 0.0,
        "Inclination(deg)": 60.0,
        "Latitude(deg)": -20.131162087954614,
        "Longitude(deg)": 166.71731981463404,
        "Mean Anomaly(deg)": 203.1847676000801,
        "RAAN(deg)": 74.99537945946284,
        "Satellite Name": "Test1 342",
        "Satellite Number": 342,
        "Semi-Major Axis(m)": 6980739.136638005,
        "Time(s)": 110
    },
    {
        "Altitude(m)": 609851.0406443095,
        "Argument of Periapsis(deg)": 0.0012502735095955685,
        "Eccentricity": 0.0,
        "Inclination(deg)": 60.0,
        "Latitude(deg)": -20.657918682618206,
        "Longitude(deg)": 167.02752710199556,
        "Mean Anomaly(deg)": 203.80487374554195,
        "RAAN(deg)": 74.99495941032309,
        "Satellite Name": "Test1 342",
        "Satellite Number": 342,
        "Semi-Major Axis(m)": 6980739.136638005,
        "Time(s)": 120
    },
    {
        "Altitude(m)": 610026.01073001,
        "Argument of Periapsis(deg)": 0.0013544629687285324,
        "Eccentricity": 0.0,
        "Inclination(deg)": 60.0,
        "Latitude(deg)": -21.18390467502836,
        "Longitude(deg)": 167.34015067120433,
        "Mean Anomaly(deg)": 204.42497989100374,
        "RAAN(deg)": 74.99453936118336,
        "Satellite Name": "Test1 342",
        "Satellite Number": 342,
        "Semi-Major Axis(m)": 6980739.136638005,
        "Time(s)": 130
    },
    {
        "Altitude(m)": 610202.7599742737,
        "Argument of Periapsis(deg)": 0.0014586524278614966,
        "Eccentricity": 0.0,
        "Inclination(deg)": 60.0,
        "Latitude(deg)": -21.709094232956467,
        "Longitude(deg)": 167.65527171232083,
        "Mean Anomaly(deg)": 205.04508603646565,
        "RAAN(deg)": 74.9941193120436,
        "Satellite Name": "Test1 342",
        "Satellite Number": 342,
        "Semi-Major Axis(m)": 6980739.136638005,
        "Time(s)": 140
    },
    {
        "Altitude(m)": 610381.2274494709,
        "Argument of Periapsis(deg)": 0.0015628418869944607,
        "Eccentricity": 0.0,
        "Inclination(deg)": 60.0,
        "Latitude(deg)": -22.233460985218965,
        "Longitude(deg)": 167.972972962811,
        "Mean Anomaly(deg)": 205.6651921819275,
        "RAAN(deg)": 74.99369926290386,
        "Satellite Name": "Test1 342",
        "Satellite Number": 342,
        "Semi-Major Axis(m)": 6980739.136638005,
        "Time(s)": 150
    },
    {
        "Altitude(m)": 610561.3513206156,
        "Argument of Periapsis(deg)": 0.0016670313461274247,
        "Eccentricity": 0.0,
        "Inclination(deg)": 60.0,
        "Latitude(deg)": -22.75697799898252,
        "Longitude(deg)": 168.29333926605887,
        "Mean Anomaly(deg)": 206.28529832738926,
        "RAAN(deg)": 74.99327921376411,
        "Satellite Name": "Test1 342",
        "Satellite Number": 342,
        "Semi-Major Axis(m)": 6980739.136638005,
        "Time(s)": 160
    },
    {
        "Altitude(m)": 610743.0688726143,
        "Argument of Periapsis(deg)": 0.0017712208052603888,
        "Eccentricity": 0.0,
        "Inclination(deg)": 60.0,
        "Latitude(deg)": -23.279617756291593,
        "Longitude(deg)": 168.61645661801387,
        "Mean Anomaly(deg)": 206.9054044728511,
        "RAAN(deg)": 74.99285916462438,
        "Satellite Name": "Test1 342",
        "Satellite Number": 342,
        "Semi-Major Axis(m)": 6980739.136638005,
        "Time(s)": 170
    },
    {
        "Altitude(m)": 610926.3165379157,
        "Argument of Periapsis(deg)": 0.001875410264393353,
        "Eccentricity": 0.0,
        "Inclination(deg)": 60.0,
        "Latitude(deg)": -23.801352129790857,
        "Longitude(deg)": 168.94241272771927,
        "Mean Anomaly(deg)": 207.52551061831295,
        "RAAN(deg)": 74.99243911548463,
        "Satellite Name": "Test1 342",
        "Satellite Number": 342,
        "Semi-Major Axis(m)": 6980739.136638005,
        "Time(s)": 180
    },
    {
        "Altitude(m)": 611111.0299245871,
        "Argument of Periapsis(deg)": 0.0019795997235263173,
        "Eccentricity": 0.0,
        "Inclination(deg)": 60.0,
        "Latitude(deg)": -24.32215235760806,
        "Longitude(deg)": 169.27129757884043,
        "Mean Anomaly(deg)": 208.1456167637748,
        "RAAN(deg)": 74.9920190663449,
        "Satellite Name": "Test1 342",
        "Satellite Number": 342,
        "Semi-Major Axis(m)": 6980739.136638005,
        "Time(s)": 190
    }
]